[{"OBJECT_NAME":"STARLINK-36361","OBJECT_ID":"2026-035X","EPOCH":"2026-03-09T22:00:01.999584","MEAN_MOTION":15.86714809,"ECCENTRICITY":0.00014939,"INCLINATION":97.267,"RA_OF_ASC_NODE":1.2913,"ARG_OF_PERICENTER":92.0974,"MEAN_ANOMALY":41.2267,"EPHEMERIS_TYPE":0,"CLASSIFICATION_TYPE":"U","NORAD_CAT_ID":67900,"ELEMENT_SET_NO":999,"REV_AT_EPOCH":379,"BSTAR":-0.0064257713,"MEAN_MOTION_DOT":-0.0141868,"MEAN_MOTION_DDOT":0},{"OBJECT_NAME":"THORAD AGENA D DEB","OBJECT_ID":"1970-025PF","EPOCH":"2026-03-08T02:58:32.488032","MEAN_MOTION":15.64290563,"ECCENTRICITY":0.00166136,"INCLINATION":99.9335,"RA_OF_ASC_NODE":127.481,"ARG_OF_PERICENTER":247.6747,"MEAN_ANOMALY":112.2743,"EPHEMERIS_TYPE":0,"CLASSIFICATION_TYPE":"U","NORAD_CAT_ID":17717,"ELEMENT_SET_NO":999,"REV_AT_EPOCH":15016,"BSTAR":0.0052904272,"MEAN_MOTION_DOT":0.00540965,"MEAN_MOTION_DDOT":0}]
